H1 CPF 01  gfz 2021 05 12 12  6322 tandemx   
H2 1003001  6202 36605    2021 05 12 12 59 42 2021 05 17 00 00 42   120 1 1  0 0 0
H9
10 0 59349  85662.000000  0    -458540.029  -4213730.990   5420073.606
10 0 59349  85782.000000  0    -599271.067  -3453034.111   5919971.654
10 0 59349  85902.000000  0    -715679.153  -2629795.507   6315767.980
10 0 59349  86022.000000  0    -804770.940  -1758855.497   6600540.145
10 0 59349  86142.000000  0    -864296.902   -855921.379   6769311.586
10 0 59349  86262.000000  0    -892802.662     62717.459   6819134.740
10 0 59349  86382.000000  0    -889661.846    980484.035   6749139.537
10 0 59350    102.000000  0    -855088.808   1880812.618   6560547.604
10 0 59350    222.000000  0    -790131.890   2747447.233   6256652.135
10 0 59350    342.000000  0    -696647.747   3564735.422   5842764.151
10 0 59350    462.000000  0    -577257.062   4317913.440   5326124.715
10 0 59350    582.000000  0    -435281.917   4993376.906   4715784.273
10 0 59350    702.000000  0    -274666.419   5578934.831   4022449.979
10 0 59350    822.000000  0     -99881.092   6064036.836   3258300.267
10 0 59350    942.000000  0      84184.677   6439973.836   2436776.356
10 0 59350   1062.000000  0     272342.537   6700048.501   1572341.554
10 0 59350   1182.000000  0     459234.400   6839700.426    680220.403
10 0 59350   1302.000000  0     639466.515   6856591.218   -223876.021
10 0 59350   1422.000000  0     807745.489   6750645.060  -1124035.703
10 0 59350   1542.000000  0     959011.323   6524042.736  -2004434.454
10 0 59350   1662.000000  0    1088564.715   6181171.421  -2849621.107
10 0 59350   1782.000000  0    1192186.356   5728531.087  -3644793.796
10 0 59350   1902.000000  0    1266245.239   5174600.160  -4376061.379
10 0 59350   2022.000000  0    1307793.215   4529664.208  -5030684.616
10 0 59350   2142.000000  0    1314643.604   3805612.917  -5597292.025
10 0 59350   2262.000000  0    1285432.136   3015711.949  -6066068.805
10 0 59350   2382.000000  0    1219659.470   2174352.753  -6428916.387
10 0 59350   2502.000000  0    1117714.514   1296787.873  -6679579.749
10 0 59350   2622.000000  0     980878.886    398856.472  -6813745.469
10 0 59350   2742.000000  0     811312.188   -503297.701  -6829108.088
10 0 59350   2862.000000  0     612018.134  -1393510.781  -6725404.325
10 0 59350   2982.000000  0     386792.530  -2255880.162  -6504415.605
10 0 59350   3102.000000  0     140154.036  -3075040.582  -6169942.417
10 0 59350   3222.000000  0    -122743.038  -3836434.960  -5727747.170
10 0 59350   3342.000000  0    -396210.847  -4526571.666  -5185463.924
10 0 59350   3462.000000  0    -674144.221  -5133266.041  -4552478.457
10 0 59350   3582.000000  0    -950149.906  -5645862.312  -3839777.206
10 0 59350   3702.000000  0   -1217685.980  -6055430.516  -3059765.926
10 0 59350   3822.000000  0   -1470208.358  -6354933.560  -2226060.650
10 0 59350   3942.000000  0   -1701321.553  -6539361.173  -1353253.565
10 0 59350   4062.000000  0   -1904929.686  -6605825.953   -456656.406
10 0 59350   4182.000000  0   -2075384.068  -6553617.705    447972.976
10 0 59350   4302.000000  0   -2207623.843  -6384214.097   1344714.861
10 0 59350   4422.000000  0   -2297305.626  -6101247.112   2217776.669
10 0 59350   4542.000000  0   -2340918.524  -5710425.665   3051780.354
10 0 59350   4662.000000  0   -2335881.146  -5219416.303   3832041.122
10 0 59350   4782.000000  0   -2280618.525  -4637685.846   4544831.070
10 0 59350   4902.000000  0   -2174617.649  -3976311.053   5177622.950
10 0 59350   5022.000000  0   -2018460.713  -3247758.933   5719310.897
10 0 59350   5142.000000  0   -1813833.964  -2465642.406   6160402.018
10 0 59350   5262.000000  0   -1563512.546  -1644460.135   6493177.019
10 0 59350   5382.000000  0   -1271323.028   -799323.958   6711819.995
10 0 59350   5502.000000  0    -942084.678     54322.408   6812513.518
10 0 59350   5622.000000  0    -581530.300    900984.907   6793500.407
10 0 59350   5742.000000  0    -196206.324   1725399.851   6655113.377
10 0 59350   5862.000000  0     206646.078   2512808.978   6399769.585
10 0 59350   5982.000000  0     619226.524   3249223.544   6031930.582
10 0 59350   6102.000000  0    1033324.943   3921674.284   5558029.399
10 0 59350   6222.000000  0    1440483.297   4518443.716   4986363.733
10 0 59350   6342.000000  0    1832166.916   5029276.572   4326956.559
10 0 59350   6462.000000  0    2199942.109   5445562.945   3591384.729
10 0 59350   6582.000000  0    2535657.064   5760491.421   2792580.262
10 0 59350   6702.000000  0    2831620.426   5969171.581   1944602.032
10 0 59350   6822.000000  0    3080774.638   6068715.392   1062382.862
10 0 59350   6942.000000  0    3276857.424   6058278.119    161459.996
10 0 59350   7062.000000  0    3414548.936   5939058.870   -742306.199
10 0 59350   7182.000000  0    3489601.083   5714259.299  -1633019.998
10 0 59350   7302.000000  0    3498944.975   5389002.789  -2495037.437
10 0 59350   7422.000000  0    3440774.405   4970215.528  -3313247.886
10 0 59350   7542.000000  0    3314602.154   4466472.335  -4073342.796
10 0 59350   7662.000000  0    3121288.970   3887813.048  -4762064.942
10 0 59350   7782.000000  0    2863045.250   3245535.253  -5367435.894
10 0 59350   7902.000000  0    2543406.046   2551966.740  -5878957.006
10 0 59350   8022.000000  0    2167180.174   1820224.119  -6287781.526
10 0 59350   8142.000000  0    1740374.658   1063962.813  -6586855.746
10 0 59350   8262.000000  0    1270098.001    297123.920  -6771028.796
10 0 59350   8382.000000  0     764442.061   -466318.395  -6837133.290
10 0 59350   8502.000000  0     232343.536  -1212606.780  -6784033.259
10 0 59350   8622.000000  0    -316570.174  -1928441.715  -6612639.916
10 0 59350   8742.000000  0    -872150.095  -2601211.764  -6325898.816
10 0 59350   8862.000000  0   -1423908.966  -3219212.708  -5928745.491
10 0 59350   8982.000000  0   -1961214.122  -3771849.386  -5428028.708
10 0 59350   9102.000000  0   -2473488.459  -4249818.924  -4832404.482
10 0 59350   9222.000000  0   -2950417.466  -4645273.219  -4152198.423
10 0 59350   9342.000000  0   -3382156.966  -4951954.922  -3399236.326
10 0 59350   9462.000000  0   -3759537.059  -5165304.622  -2586646.737
10 0 59350   9582.000000  0   -4074258.844  -5282536.814  -1728637.029
10 0 59350   9702.000000  0   -4319078.491  -5302681.745   -840245.895
10 0 59350   9822.000000  0   -4487973.436  -5226591.551     62923.288
10 0 59350   9942.000000  0   -4576286.139  -5056909.790    964982.789
10 0 59350  10062.000000  0   -4580841.633  -4798004.238   1850049.001
10 0 59350  10182.000000  0   -4500034.612  -4455863.689   2702531.708
10 0 59350  10302.000000  0   -4333884.484  -4037962.579   3507416.807
10 0 59350  10422.000000  0   -4084057.569  -3553097.183   4250537.290
10 0 59350  10542.000000  0   -3753854.970  -3011196.729   4918827.107
10 0 59350  10662.000000  0   -3348167.145  -2423114.931   5500550.628
10 0 59350  10782.000000  0   -2873397.976  -1800409.032   5985505.946
10 0 59350  10902.000000  0   -2337359.345  -1155109.817   6365200.530
10 0 59350  11022.000000  0   -1749137.862   -499485.525   6632995.669
10 0 59350  11142.000000  0   -1118935.674    154193.544   6784215.251
10 0 59350  11262.000000  0    -457892.287    793883.061   6816220.848
10 0 59350  11382.000000  0     222112.054   1407985.829   6728455.439
10 0 59350  11502.000000  0     908669.477   1985561.909   6522452.802
10 0 59350  11622.000000  0    1589070.509   2516523.646   6201811.675
10 0 59350  11742.000000  0    2250538.381   2991811.946   5772136.690
10 0 59350  11862.000000  0    2880469.272   3403553.284   5240947.150
10 0 59350  11982.000000  0    3466675.452   3745194.431   4617551.386
10 0 59350  12102.000000  0    3997623.543   4011609.818   3912887.319
10 0 59350  12222.000000  0    4462665.370   4199183.062   3139337.162
10 0 59350  12342.000000  0    4852259.342   4305858.555   2310508.876
10 0 59350  12462.000000  0    5158169.390   4331160.181   1440994.536
10 0 59350  12582.000000  0    5373643.054   4276178.626    546108.628
10 0 59350  12702.000000  0    5493560.474   4143525.886   -358390.013
10 0 59350  12822.000000  0    5514550.000   3937258.385  -1256584.968
10 0 59350  12942.000000  0    5435069.112   3662770.899  -2132690.586
10 0 59350  13062.000000  0    5255448.042   3326663.732  -2971336.339
10 0 59350  13182.000000  0    4977895.916   2936588.071  -3757840.427
10 0 59350  13302.000000  0    4606470.150   2501073.785  -4478468.723
10 0 59350  13422.000000  0    4147008.546   2029341.668  -5120672.894
10 0 59350  13542.000000  0    3607028.401   1531107.199  -5673301.875
10 0 59350  13662.000000  0    2995595.328   1016380.906  -6126786.400
10 0 59350  13782.000000  0    2323164.103    495268.669  -6473293.999
10 0 59350  13902.000000  0    1601396.298    -22223.592  -6706851.920
10 0 59350  14022.000000  0     842959.069   -526377.748  -6823440.528
10 0 59350  14142.000000  0      61304.372  -1007942.079  -6821055.560
10 0 59350  14262.000000  0    -729564.635  -1458296.168  -6699736.922
10 0 59350  14382.000000  0   -1515337.698  -1869600.770  -6461568.755
10 0 59350  14502.000000  0   -2281650.728  -2234932.007  -6110647.923
10 0 59350  14622.000000  0   -3014342.526  -2548396.513  -5653020.473
10 0 59350  14742.000000  0   -3699712.745  -2805227.173  -5096589.060
10 0 59350  14862.000000  0   -4324779.319  -3001858.332  -4450988.596
10 0 59350  14982.000000  0   -4877527.732  -3135977.226  -3727429.778
10 0 59350  15102.000000  0   -5347148.000  -3206550.906  -2938513.817
10 0 59350  15222.000000  0   -5724254.605  -3213827.911  -2098019.154
10 0 59350  15342.000000  0   -6001082.869  -3159313.635  -1220663.020
10 0 59350  15462.000000  0   -6171657.003  -3045719.910   -321842.551
10 0 59350  15582.000000  0   -6231924.967  -2876889.078    582640.116
10 0 59350  15702.000000  0   -6179856.707  -2657694.746   1476863.255
99
